[{"OBJECT_NAME":"STARLINK-4486","OBJECT_ID":"2022-101P","EPOCH":"2026-03-09T06:34:01.118784","MEAN_MOTION":15.08842573,"ECCENTRICITY":0.00013592,"INCLINATION":53.2173,"RA_OF_ASC_NODE":66.3436,"ARG_OF_PERICENTER":86.8873,"MEAN_ANOMALY":273.2275,"EPHEMERIS_TYPE":0,"CLASSIFICATION_TYPE":"U","NORAD_CAT_ID":53540,"ELEMENT_SET_NO":999,"REV_AT_EPOCH":19692,"BSTAR":2.2578461e-5,"MEAN_MOTION_DOT":7.1e-7,"MEAN_MOTION_DDOT":0},{"OBJECT_NAME":"CZ-4C R\/B","OBJECT_ID":"2021-026B","EPOCH":"2026-03-09T16:37:41.696544","MEAN_MOTION":15.16445633,"ECCENTRICITY":0.00393855,"INCLINATION":97.7468,"RA_OF_ASC_NODE":117.371,"ARG_OF_PERICENTER":22.5612,"MEAN_ANOMALY":337.7341,"EPHEMERIS_TYPE":0,"CLASSIFICATION_TYPE":"U","NORAD_CAT_ID":48080,"ELEMENT_SET_NO":999,"REV_AT_EPOCH":27175,"BSTAR":0.00026802982,"MEAN_MOTION_DOT":5.244e-5,"MEAN_MOTION_DDOT":0}]
